[{"OBJECT_NAME":"FENGYUN 1C DEB","OBJECT_ID":"1999-025EBR","EPOCH":"2026-04-20T08:38:24.997056","MEAN_MOTION":14.29972327,"ECCENTRICITY":0.00461781,"INCLINATION":98.6402,"RA_OF_ASC_NODE":162.7154,"ARG_OF_PERICENTER":357.1786,"MEAN_ANOMALY":2.9129,"EPHEMERIS_TYPE":0,"CLASSIFICATION_TYPE":"U","NORAD_CAT_ID":36743,"ELEMENT_SET_NO":999,"REV_AT_EPOCH":62575,"BSTAR":0.0007258433,"MEAN_MOTION_DOT":1.849e-5,"MEAN_MOTION_DDOT":0},{"OBJECT_NAME":"FENGYUN 1C DEB","OBJECT_ID":"1999-025EBS","EPOCH":"2026-04-24T15:29:50.000640","MEAN_MOTION":14.15582591,"ECCENTRICITY":0.0085918,"INCLINATION":99.1335,"RA_OF_ASC_NODE":188.8911,"ARG_OF_PERICENTER":226.1931,"MEAN_ANOMALY":133.2115,"EPHEMERIS_TYPE":0,"CLASSIFICATION_TYPE":"U","NORAD_CAT_ID":36986,"ELEMENT_SET_NO":999,"REV_AT_EPOCH":83624,"BSTAR":0.0012156088,"MEAN_MOTION_DOT":2.419e-5,"MEAN_MOTION_DDOT":0},{"OBJECT_NAME":"FENGYUN 1C DEB","OBJECT_ID":"1999-025EBT","EPOCH":"2026-04-23T11:00:55.664640","MEAN_MOTION":13.460668,"ECCENTRICITY":0.03198057,"INCLINATION":100.8109,"RA_OF_ASC_NODE":9.6299,"ARG_OF_PERICENTER":94.5148,"MEAN_ANOMALY":269.258,"EPHEMERIS_TYPE":0,"CLASSIFICATION_TYPE":"U","NORAD_CAT_ID":36987,"ELEMENT_SET_NO":999,"REV_AT_EPOCH":62649,"BSTAR":0.00091522021,"MEAN_MOTION_DOT":6.97e-6,"MEAN_MOTION_DDOT":0},{"OBJECT_NAME":"FENGYUN 1C DEB","OBJECT_ID":"1999-025EBW","EPOCH":"2026-04-25T00:13:39.298368","MEAN_MOTION":13.57108702,"ECCENTRICITY":0.02911198,"INCLINATION":96.5904,"RA_OF_ASC_NODE":24.8052,"ARG_OF_PERICENTER":18.5909,"MEAN_ANOMALY":342.5613,"EPHEMERIS_TYPE":0,"CLASSIFICATION_TYPE":"U","NORAD_CAT_ID":36990,"ELEMENT_SET_NO":999,"REV_AT_EPOCH":84695,"BSTAR":0.00047403855,"MEAN_MOTION_DOT":4.22e-6,"MEAN_MOTION_DDOT":0},{"OBJECT_NAME":"FENGYUN 1C DEB","OBJECT_ID":"1999-025ECA","EPOCH":"2026-04-26T08:14:05.879040","MEAN_MOTION":13.90840461,"ECCENTRICITY":0.0114313,"INCLINATION":98.6641,"RA_OF_ASC_NODE":74.427,"ARG_OF_PERICENTER":282.9786,"MEAN_ANOMALY":75.8631,"EPHEMERIS_TYPE":0,"CLASSIFICATION_TYPE":"U","NORAD_CAT_ID":36994,"ELEMENT_SET_NO":999,"REV_AT_EPOCH":82778,"BSTAR":8.5779e-5,"MEAN_MOTION_DOT":7.2e-7,"MEAN_MOTION_DDOT":0},{"OBJECT_NAME":"FENGYUN 1C DEB","OBJECT_ID":"1999-025ECB","EPOCH":"2026-04-26T10:33:36.669600","MEAN_MOTION":14.04900111,"ECCENTRICITY":0.0038289,"INCLINATION":98.3256,"RA_OF_ASC_NODE":349.2587,"ARG_OF_PERICENTER":287.9533,"MEAN_ANOMALY":71.7464,"EPHEMERIS_TYPE":0,"CLASSIFICATION_TYPE":"U","NORAD_CAT_ID":36995,"ELEMENT_SET_NO":999,"REV_AT_EPOCH":65448,"BSTAR":0.00013247,"MEAN_MOTION_DOT":1.75e-6,"MEAN_MOTION_DDOT":0},{"OBJECT_NAME":"FENGYUN 1C DEB","OBJECT_ID":"1999-025ECC","EPOCH":"2026-04-23T03:39:28.808928","MEAN_MOTION":14.12397612,"ECCENTRICITY":0.0251272,"INCLINATION":98.2408,"RA_OF_ASC_NODE":259.8346,"ARG_OF_PERICENTER":329.9812,"MEAN_ANOMALY":208.3393,"EPHEMERIS_TYPE":0,"CLASSIFICATION_TYPE":"U","NORAD_CAT_ID":36996,"ELEMENT_SET_NO":999,"REV_AT_EPOCH":61546,"BSTAR":0.0004454194,"MEAN_MOTION_DOT":1.064e-5,"MEAN_MOTION_DDOT":0},{"OBJECT_NAME":"FENGYUN 1C DEB","OBJECT_ID":"1999-025ECK","EPOCH":"2026-04-23T07:13:19.229664","MEAN_MOTION":13.96476453,"ECCENTRICITY":0.00970935,"INCLINATION":98.8339,"RA_OF_ASC_NODE":136.7693,"ARG_OF_PERICENTER":158.71,"MEAN_ANOMALY":264.8008,"EPHEMERIS_TYPE":0,"CLASSIFICATION_TYPE":"U","NORAD_CAT_ID":37003,"ELEMENT_SET_NO":999,"REV_AT_EPOCH":62493,"BSTAR":0.00055999089,"MEAN_MOTION_DOT":7.63e-6,"MEAN_MOTION_DDOT":0},{"OBJECT_NAME":"FENGYUN 1C DEB","OBJECT_ID":"1999-025ECN","EPOCH":"2026-04-22T11:38:20.968224","MEAN_MOTION":14.49953948,"ECCENTRICITY":0.02513742,"INCLINATION":99.2882,"RA_OF_ASC_NODE":19.4707,"ARG_OF_PERICENTER":219.4096,"MEAN_ANOMALY":138.8572,"EPHEMERIS_TYPE":0,"CLASSIFICATION_TYPE":"U","NORAD_CAT_ID":37006,"ELEMENT_SET_NO":999,"REV_AT_EPOCH":67008,"BSTAR":0.00025793008,"MEAN_MOTION_DOT":1.426e-5,"MEAN_MOTION_DDOT":0},{"OBJECT_NAME":"FENGYUN 1C DEB","OBJECT_ID":"1999-025ECQ","EPOCH":"2026-04-25T14:22:02.890848","MEAN_MOTION":14.08261254,"ECCENTRICITY":0.0059749,"INCLINATION":99.1459,"RA_OF_ASC_NODE":241.1138,"ARG_OF_PERICENTER":242.1098,"MEAN_ANOMALY":117.4012,"EPHEMERIS_TYPE":0,"CLASSIFICATION_TYPE":"U","NORAD_CAT_ID":37008,"ELEMENT_SET_NO":999,"REV_AT_EPOCH":62198,"BSTAR":0.00066674832,"MEAN_MOTION_DOT":1.112e-5,"MEAN_MOTION_DDOT":0},{"OBJECT_NAME":"FENGYUN 1C DEB","OBJECT_ID":"1999-025ECZ","EPOCH":"2026-04-23T02:51:21.568896","MEAN_MOTION":14.4250256,"ECCENTRICITY":0.02756383,"INCLINATION":98.8056,"RA_OF_ASC_NODE":66.7526,"ARG_OF_PERICENTER":333.6571,"MEAN_ANOMALY":25.0817,"EPHEMERIS_TYPE":0,"CLASSIFICATION_TYPE":"U","NORAD_CAT_ID":37017,"ELEMENT_SET_NO":999,"REV_AT_EPOCH":63054,"BSTAR":0.00090136096,"MEAN_MOTION_DOT":4.669e-5,"MEAN_MOTION_DDOT":0},{"OBJECT_NAME":"FENGYUN 1C DEB","OBJECT_ID":"1999-025EDA","EPOCH":"2026-04-21T20:33:43.029792","MEAN_MOTION":14.44210329,"ECCENTRICITY":0.0193568,"INCLINATION":98.5022,"RA_OF_ASC_NODE":330.4982,"ARG_OF_PERICENTER":248.7445,"MEAN_ANOMALY":109.2977,"EPHEMERIS_TYPE":0,"CLASSIFICATION_TYPE":"U","NORAD_CAT_ID":37018,"ELEMENT_SET_NO":999,"REV_AT_EPOCH":65406,"BSTAR":0.0026694,"MEAN_MOTION_DOT":0.00011486,"MEAN_MOTION_DDOT":0},{"OBJECT_NAME":"FENGYUN 1C DEB","OBJECT_ID":"1999-025EDD","EPOCH":"2026-04-19T07:43:57.877824","MEAN_MOTION":14.32949524,"ECCENTRICITY":0.01739326,"INCLINATION":98.3775,"RA_OF_ASC_NODE":126.8979,"ARG_OF_PERICENTER":232.5956,"MEAN_ANOMALY":142.3204,"EPHEMERIS_TYPE":0,"CLASSIFICATION_TYPE":"U","NORAD_CAT_ID":37021,"ELEMENT_SET_NO":999,"REV_AT_EPOCH":71881,"BSTAR":0.00039924997,"MEAN_MOTION_DOT":1.244e-5,"MEAN_MOTION_DDOT":0},{"OBJECT_NAME":"FENGYUN 1C DEB","OBJECT_ID":"1999-025EDL","EPOCH":"2026-04-24T12:02:06.361728","MEAN_MOTION":14.23941664,"ECCENTRICITY":0.00341985,"INCLINATION":99.2447,"RA_OF_ASC_NODE":33.881,"ARG_OF_PERICENTER":80.4204,"MEAN_ANOMALY":280.0835,"EPHEMERIS_TYPE":0,"CLASSIFICATION_TYPE":"U","NORAD_CAT_ID":37028,"ELEMENT_SET_NO":999,"REV_AT_EPOCH":62364,"BSTAR":0.0012171879,"MEAN_MOTION_DOT":2.761e-5,"MEAN_MOTION_DDOT":0},{"OBJECT_NAME":"FENGYUN 1C DEB","OBJECT_ID":"1999-025EDU","EPOCH":"2026-04-24T16:53:10.691808","MEAN_MOTION":14.0373222,"ECCENTRICITY":0.0124029,"INCLINATION":98.7242,"RA_OF_ASC_NODE":107.033,"ARG_OF_PERICENTER":42.605,"MEAN_ANOMALY":318.4658,"EPHEMERIS_TYPE":0,"CLASSIFICATION_TYPE":"U","NORAD_CAT_ID":37036,"ELEMENT_SET_NO":999,"REV_AT_EPOCH":65613,"BSTAR":0.00030675199,"MEAN_MOTION_DOT":4.75e-6,"MEAN_MOTION_DDOT":0},{"OBJECT_NAME":"FENGYUN 1C DEB","OBJECT_ID":"1999-025EEA","EPOCH":"2026-04-14T02:25:41.964096","MEAN_MOTION":14.80615052,"ECCENTRICITY":0.00475488,"INCLINATION":98.5931,"RA_OF_ASC_NODE":236.9562,"ARG_OF_PERICENTER":4.4205,"MEAN_ANOMALY":355.7416,"EPHEMERIS_TYPE":0,"CLASSIFICATION_TYPE":"U","NORAD_CAT_ID":37042,"ELEMENT_SET_NO":999,"REV_AT_EPOCH":74605,"BSTAR":0.00095541732,"MEAN_MOTION_DOT":7.42e-5,"MEAN_MOTION_DDOT":0},{"OBJECT_NAME":"FENGYUN 1C DEB","OBJECT_ID":"1999-025EEC","EPOCH":"2026-04-25T17:28:33.316896","MEAN_MOTION":13.72469317,"ECCENTRICITY":0.05044979,"INCLINATION":98.9607,"RA_OF_ASC_NODE":218.6079,"ARG_OF_PERICENTER":165.8886,"MEAN_ANOMALY":195.6977,"EPHEMERIS_TYPE":0,"CLASSIFICATION_TYPE":"U","NORAD_CAT_ID":37044,"ELEMENT_SET_NO":999,"REV_AT_EPOCH":85695,"BSTAR":0.0027951272,"MEAN_MOTION_DOT":6.388e-5,"MEAN_MOTION_DDOT":0},{"OBJECT_NAME":"FENGYUN 1C DEB","OBJECT_ID":"1999-025EEE","EPOCH":"2026-04-15T07:11:18.590208","MEAN_MOTION":14.25295671,"ECCENTRICITY":0.00486578,"INCLINATION":98.5355,"RA_OF_ASC_NODE":121.2808,"ARG_OF_PERICENTER":305.9426,"MEAN_ANOMALY":53.7244,"EPHEMERIS_TYPE":0,"CLASSIFICATION_TYPE":"U","NORAD_CAT_ID":37046,"ELEMENT_SET_NO":999,"REV_AT_EPOCH":65941,"BSTAR":0.00041045868,"MEAN_MOTION_DOT":9.35e-6,"MEAN_MOTION_DDOT":0},{"OBJECT_NAME":"FENGYUN 1C DEB","OBJECT_ID":"1999-025EEF","EPOCH":"2026-04-26T08:42:44.192736","MEAN_MOTION":13.84169129,"ECCENTRICITY":0.0233574,"INCLINATION":99.1259,"RA_OF_ASC_NODE":170.5574,"ARG_OF_PERICENTER":212.6162,"MEAN_ANOMALY":146.0384,"EPHEMERIS_TYPE":0,"CLASSIFICATION_TYPE":"U","NORAD_CAT_ID":37047,"ELEMENT_SET_NO":999,"REV_AT_EPOCH":63945,"BSTAR":0.0025845,"MEAN_MOTION_DOT":3.516e-5,"MEAN_MOTION_DDOT":0},{"OBJECT_NAME":"FENGYUN 1C DEB","OBJECT_ID":"1999-025EEG","EPOCH":"2026-04-21T10:20:04.155360","MEAN_MOTION":13.65249113,"ECCENTRICITY":0.02532158,"INCLINATION":98.8751,"RA_OF_ASC_NODE":326.9695,"ARG_OF_PERICENTER":169.7737,"MEAN_ANOMALY":312.992,"EPHEMERIS_TYPE":0,"CLASSIFICATION_TYPE":"U","NORAD_CAT_ID":37048,"ELEMENT_SET_NO":999,"REV_AT_EPOCH":63939,"BSTAR":0.0002840785,"MEAN_MOTION_DOT":2.49e-6,"MEAN_MOTION_DDOT":0},{"OBJECT_NAME":"FENGYUN 1C DEB","OBJECT_ID":"1999-025EEM","EPOCH":"2026-04-25T03:23:33.052992","MEAN_MOTION":14.55616069,"ECCENTRICITY":0.00421583,"INCLINATION":99.1455,"RA_OF_ASC_NODE":238.5402,"ARG_OF_PERICENTER":130.7829,"MEAN_ANOMALY":353.8111,"EPHEMERIS_TYPE":0,"CLASSIFICATION_TYPE":"U","NORAD_CAT_ID":37053,"ELEMENT_SET_NO":999,"REV_AT_EPOCH":66977,"BSTAR":0.0012595833,"MEAN_MOTION_DOT":5.511e-5,"MEAN_MOTION_DDOT":0},{"OBJECT_NAME":"FENGYUN 1C DEB","OBJECT_ID":"1999-025EEN","EPOCH":"2026-04-18T04:53:08.149920","MEAN_MOTION":14.19647025,"ECCENTRICITY":0.01036154,"INCLINATION":98.5638,"RA_OF_ASC_NODE":91.4424,"ARG_OF_PERICENTER":99.7364,"MEAN_ANOMALY":261.5533,"EPHEMERIS_TYPE":0,"CLASSIFICATION_TYPE":"U","NORAD_CAT_ID":37054,"ELEMENT_SET_NO":999,"REV_AT_EPOCH":66223,"BSTAR":0.00020594891,"MEAN_MOTION_DOT":4.18e-6,"MEAN_MOTION_DDOT":0},{"OBJECT_NAME":"FENGYUN 1C DEB","OBJECT_ID":"1999-025EEQ","EPOCH":"2026-04-26T08:17:35.562336","MEAN_MOTION":14.51055879,"ECCENTRICITY":0.0267582,"INCLINATION":98.9661,"RA_OF_ASC_NODE":152.7164,"ARG_OF_PERICENTER":100.909,"MEAN_ANOMALY":262.2331,"EPHEMERIS_TYPE":0,"CLASSIFICATION_TYPE":"U","NORAD_CAT_ID":37056,"ELEMENT_SET_NO":999,"REV_AT_EPOCH":67363,"BSTAR":0.0003795,"MEAN_MOTION_DOT":2.331e-5,"MEAN_MOTION_DDOT":0}]
